NORAD_CAT_ID,OBJECT_NAME,OBJECT_TYPE,EPOCH,MEAN_MOTION,ECCENTRICITY,INCLINATION,RA_OF_ASC_NODE,ARG_OF_PERICENTER,MEAN_ANOMALY,BSTAR,MEAN_MOTION_DOT,MEAN_MOTION_DDOT,TLE_LINE0,TLE_LINE1,TLE_LINE2,SEMIMAJOR_AXIS,PERIOD,APOGEE,PERIGEE,DECAYED
53391.0,STARLINK-4521,PAYLOAD,2023-03-30 23:12:47,15.08871225,0.0001168,53.2128,268.7387,70.2791,289.8327,0.001194,0.00018782,0.0,0 STARLINK-4521,1 53391U 22097D   23089.96722072  .00018782  00000-0  11940-2 0  9991,2 53391  53.2128 268.7387 0001168  70.2791 289.8327 15.08871225 35777,6917.785,95.436,540.458,538.842,0.0
53391.0,STARLINK-4521,PAYLOAD,2023-03-31 11:55:53,15.08848951,9.53e-05,53.2134,266.3603,69.6116,290.4978,0.00021123,3.076e-05,0.0,0 STARLINK-4521,1 53391U 22097D   23090.49714166  .00003076  00000-0  21123-3 0  9991,2 53391  53.2134 266.3603 0000953  69.6116 290.4978 15.08848951 35852,6917.853,95.437,540.377,539.059,0.0
53391.0,STARLINK-4521,PAYLOAD,2023-03-31 23:03:34,15.08862624,0.0001335,53.2132,264.2782,81.7331,278.3813,0.00080393,0.00012538,0.0,0 STARLINK-4521,1 53391U 22097D   23090.96081658  .00012538  00000-0  80393-3 0  9993,2 53391  53.2132 264.2782 0001335  81.7331 278.3813 15.08862624 35928,6917.811,95.436,540.6,538.753,0.0
53391.0,STARLINK-4521,PAYLOAD,2023-04-01 11:46:40,15.08826854,0.0001127,53.2134,261.8982,92.2001,267.912,0.00016408,2.324e-05,0.0,0 STARLINK-4521,1 53391U 22097D   23091.49074606  .00002324  00000-0  16408-3 0  9995,2 53391  53.2134 261.8982 0001127  92.2001 267.9120 15.08826854 36005,6917.921,95.438,540.565,539.006,0.0
53391.0,STARLINK-4521,PAYLOAD,2023-04-01 18:08:13,15.08827012,8.23e-05,53.2134,260.7094,83.4,276.7086,0.001231,0.00019351,0.0,0 STARLINK-4521,1 53391U 22097D   23091.75571096  .00019351  00000-0  12310-2 0  9994,2 53391  53.2134 260.7094 0000823  83.4000 276.7086 15.08827012 36691,6917.92,95.438,540.354,539.216,0.0
53391.0,STARLINK-4521,PAYLOAD,2023-04-02 14:48:14,15.08848383,9.8e-05,53.2139,256.8436,90.297,269.8134,0.00099647,0.0001561,0.0,0 STARLINK-4521,1 53391U 22097D   23092.61683271  .00015610  00000-0  99647-3 0  9992,2 53391  53.2139 256.8436 0000980  90.2970 269.8134 15.08848383 36172,6917.855,95.437,540.398,539.042,0.0
53391.0,STARLINK-4521,PAYLOAD,2023-04-02 19:34:23,15.088589,0.0001026,53.2138,255.9517,91.4096,268.7013,0.0010997,0.00017266,0.0,0 STARLINK-4521,1 53391U 22097D   23092.81554942  .00017266  00000-0  10997-2 0  9995,2 53391  53.2138 255.9517 0001026  91.4096 268.7013 15.08858900 36850,6917.823,95.436,540.397,538.978,0.0
53391.0,STARLINK-4521,PAYLOAD,2023-04-03 03:31:19,15.08849415,0.0001119,53.2143,254.465,87.6795,272.4325,0.00060242,9.315e-05,0.0,0 STARLINK-4521,1 53391U 22097D   23093.14675123  .00009315  00000-0  60242-3 0  9992,2 53391  53.2143 254.4650 0001119  87.6795 272.4325 15.08849415 36257,6917.852,95.437,540.491,538.943,0.0
53391.0,STARLINK-4521,PAYLOAD,2023-04-03 09:52:51,15.08853167,0.0001359,53.2155,253.2766,95.0057,265.109,0.00058472,9.033e-05,0.0,0 STARLINK-4521,1 53391U 22097D   23093.41171034  .00009033  00000-0  58472-3 0  9993,2 53391  53.2155 253.2766 0001359  95.0057 265.1090 15.08853167 36948,6917.84,95.437,540.645,538.765,0.0
53391.0,STARLINK-4521,PAYLOAD,2023-04-03 17:49:47,15.08855021,0.0001337,53.2152,251.7895,97.4217,262.6927,0.00050428,7.75e-05,0.0,0 STARLINK-4521,1 53391U 22097D   23093.74290760  .00007750  00000-0  50428-3 0  9994,2 53391  53.2152 251.7895 0001337  97.4217 262.6927 15.08855021 36998,6917.834,95.437,540.624,538.775,0.0
53391.0,STARLINK-4521,PAYLOAD,2023-04-04 03:22:05,15.08857623,6.44e-05,53.2142,250.0047,88.0576,272.049,0.0008596,0.00013426,0.0,0 STARLINK-4521,1 53391U 22097D   23094.14034551  .00013426  00000-0  85960-3 0  9999,2 53391  53.2142 250.0047 0000644  88.0576 272.0490 15.08857623 36408,6917.827,95.436,540.137,539.246,0.0
53391.0,STARLINK-4521,PAYLOAD,2023-04-04 11:19:01,15.08842676,8.7e-05,53.214,248.5176,90.4644,269.6448,0.00028586,4.265e-05,0.0,0 STARLINK-4521,1 53391U 22097D   23094.47154785  .00004265  00000-0  28586-3 0  9999,2 53391  53.2140 248.5176 0000870  90.4644 269.6448 15.08842676 36457,6917.872,95.437,540.339,539.135,0.0
53391.0,STARLINK-4521,PAYLOAD,2023-04-04 19:15:57,15.08851405,0.0001104,53.213,247.0291,80.7332,279.3785,0.00063074,9.768e-05,0.0,0 STARLINK-4521,1 53391U 22097D   23094.80274692  .00009768  00000-0  63074-3 0  9990,2 53391  53.2130 247.0291 0001104  80.7332 279.3785 15.08851405 37155,6917.846,95.437,540.474,538.947,0.0
53391.0,STARLINK-4521,PAYLOAD,2023-04-05 14:20:35,15.0883403,0.0001152,53.2123,243.4605,83.5771,276.5353,0.00044694,6.831e-05,0.0,0 STARLINK-4521,1 53391U 22097D   23095.59763500  .00006831  00000-0  44694-3 0  9993,2 53391  53.2123 243.4605 0001152  83.5771 276.5353 15.08834030 37275,6917.899,95.438,540.561,538.967,0.0
53391.0,STARLINK-4521,PAYLOAD,2023-04-05 15:55:58,15.08830878,0.0001267,53.2124,243.1644,76.8801,283.2332,0.00023037,3.379e-05,0.0,0 STARLINK-4521,1 53391U 22097D   23095.66387615  .00003379  00000-0  23037-3 0  9992,2 53391  53.2124 243.1644 0001267  76.8801 283.2332 15.08830878 36639,6917.908,95.438,540.65,538.897,0.0
53391.0,STARLINK-4521,PAYLOAD,2023-04-05 17:31:22,15.08834126,0.0001495,53.214,242.8668,72.3898,287.7257,0.0002059,2.99e-05,0.0,0 STARLINK-4521,1 53391U 22097D   23095.73011678  .00002990  00000-0  20590-3 0  9992,2 53391  53.2140 242.8668 0001495  72.3898 287.7257 15.08834126 37297,6917.898,95.438,540.798,538.729,0.0
53391.0,STARLINK-4521,PAYLOAD,2023-04-06 09:25:13,15.08840193,0.0001354,53.2142,239.8936,76.9347,283.1796,0.0003801,5.767e-05,0.0,0 STARLINK-4521,1 53391U 22097D   23096.39251767  .00005767  00000-0  38010-3 0  9991,2 53391  53.2142 239.8936 0001354  76.9347 283.1796 15.08840193 37396,6917.88,95.438,540.681,538.808,0.0
53391.0,STARLINK-4521,PAYLOAD,2023-04-07 02:54:27,15.08851355,0.0001349,53.2145,236.6226,75.3396,284.7746,0.00046526,7.127e-05,0.0,0 STARLINK-4521,1 53391U 22097D   23097.12115412  .00007127  00000-0  46526-3 0  9992,2 53391  53.2145 236.6226 0001349  75.3396 284.7746 15.08851355 36851,6917.846,95.437,540.644,538.777,0.0
53391.0,STARLINK-4521,PAYLOAD,2023-04-07 12:26:45,15.08862909,0.0001273,53.2147,234.8377,77.3032,282.8102,0.0005762,8.9e-05,0.0,0 STARLINK-4521,1 53391U 22097D   23097.51858736  .00008900  00000-0  57620-3 0  9995,2 53391  53.2147 234.8377 0001273  77.3032 282.8102 15.08862909 37566,6917.81,95.436,540.556,538.795,0.0
53391.0,STARLINK-4521,PAYLOAD,2023-04-07 18:48:16,15.08909171,0.0001141,53.2153,233.6488,88.1554,271.9569,0.0016167,0.00025584,0.0,0 STARLINK-4521,1 53391U 22097D   23097.78352864  .00025584  00000-0  16167-2 0  9992,2 53391  53.2153 233.6488 0001141  88.1554 271.9569 15.08909171 36957,6917.669,95.433,540.323,538.745,0.0
53391.0,STARLINK-4521,PAYLOAD,2023-04-08 12:17:32,15.08832943,0.0001248,53.215,230.3776,72.4467,287.6661,-0.00058922,-9.651e-05,0.0,0 STARLINK-4521,1 53391U 22097D   23098.51218249 -.00009651  00000-0 -58922-3 0  9997,2 53391  53.2150 230.3776 0001248  72.4467 287.6661 15.08832943 37067,6917.902,95.438,540.63,538.904,0.0
53391.0,STARLINK-4521,PAYLOAD,2023-04-09 10:32:57,15.08821247,0.000141,53.2142,226.2139,81.5915,278.5237,1.5596e-05,-4e-07,0.0,0 STARLINK-4521,1 53391U 22097D   23099.43955587 -.00000040  00000-0  15596-4 0  9995,2 53391  53.2142 226.2139 0001410  81.5915 278.5237 15.08821247 37855,6917.938,95.439,540.778,538.827,0.0
53391.0,STARLINK-4521,PAYLOAD,2023-04-09 18:29:53,15.08837062,0.0001444,53.214,224.7267,86.2806,273.8351,0.0003234,4.862e-05,0.0,0 STARLINK-4521,1 53391U 22097D   23099.77075468  .00004862  00000-0  32340-3 0  9993,2 53391  53.2140 224.7267 0001444  86.2806 273.8351 15.08837062 37257,6917.889,95.438,540.753,538.755,0.0
53391.0,STARLINK-4521,PAYLOAD,2023-04-10 10:23:44,15.08843328,0.000151,53.214,221.7534,95.0231,265.0933,0.00051199,7.87e-05,0.0,0 STARLINK-4521,1 53391U 22097D   23100.43315920  .00007870  00000-0  51199-3 0  9994,2 53391  53.2140 221.7534 0001510  95.0231 265.0933 15.08843328 38000,6917.87,95.437,540.78,538.691,0.0
53391.0,STARLINK-4521,PAYLOAD,2023-04-10 18:20:40,15.08867286,0.0001691,53.2144,220.2665,86.9269,273.1916,0.0011135,0.00017491,0.0,0 STARLINK-4521,1 53391U 22097D   23100.76435310  .00017491  00000-0  11135-2 0  9991,2 53391  53.2144 220.2665 0001691  86.9269 273.1916 15.08867286 38058,6917.797,95.436,540.832,538.492,0.0
53391.0,STARLINK-4521,PAYLOAD,2023-04-11 11:49:54,15.08848608,0.0001444,53.2138,216.9959,93.9106,266.2051,0.00019484,2.815e-05,0.0,0 STARLINK-4521,1 53391U 22097D   23101.49299037  .00002815  00000-0  19484-3 0  9996,2 53391  53.2138 216.9959 0001444  93.9106 266.2051 15.08848608 37513,6917.854,95.437,540.718,538.72,0.0
53391.0,STARLINK-4521,PAYLOAD,2023-04-11 16:36:03,15.08845753,0.0001747,53.2126,216.1028,95.7241,264.395,0.00024228,3.571e-05,0.0,0 STARLINK-4521,1 53391U 22097D   23101.69170976  .00003571  00000-0  24228-3 0  9990,2 53391  53.2126 216.1028 0001747  95.7241 264.3950 15.08845753 38195,6917.863,95.437,540.936,538.519,0.0
53391.0,STARLINK-4521,PAYLOAD,2023-04-12 00:32:59,15.08840833,0.0001183,53.213,214.6172,87.9902,272.1225,-0.00012401,-2.261e-05,0.0,0 STARLINK-4521,1 53391U 22097D   23102.02291033 -.00002261  00000-0 -12401-3 0  9993,2 53391  53.2130 214.6172 0001183  87.9902 272.1225 15.08840833 37593,6917.878,95.438,540.561,538.924,0.0
53391.0,STARLINK-4521,PAYLOAD,2023-04-12 11:40:41,15.08835733,0.0001155,53.215,212.5355,94.6543,265.4581,-9.1155e-05,-1.738e-05,0.0,0 STARLINK-4521,1 53391U 22097D   23102.48659415 -.00001738  00000-0 -91155-4 0  9997,2 53391  53.2150 212.5355 0001155  94.6543 265.4581 15.08835733 38314,6917.893,95.438,540.557,538.959,0.0
53391.0,STARLINK-4521,PAYLOAD,2023-04-13 00:23:46,15.0884199,8.42e-05,53.2142,210.1562,81.6251,278.4836,0.00022948,3.367e-05,0.0,0 STARLINK-4521,1 53391U 22097D   23103.01651377  .00003367  00000-0  22948-3 0  9997,2 53391  53.2142 210.1562 0000842  81.6251 278.4836 15.08841990 38390,6917.874,95.437,540.322,539.157,0.0
